ONEWEB-0435             
1 51632U 22012L   25213.63944336 -.00000654  00000+0 -19093-2 0  9995
2 51632  87.8801 100.0219 0002190  72.8705 287.2662 13.10373041167465
ONEWEB-0436             
1 51633U 22012M   25213.52093253 -.00000024  00000+0 -95555-4 0  9997
2 51633  87.9029  69.4623 0001909  77.6416 282.4929 13.17647773171589
ONEWEB-0438             
1 51634U 22012N   25214.23371558 -.00000133  00000+0 -41870-3 0  9995
2 51634  87.8796  99.9037 0001753  83.3073 276.8254 13.10369894168860
ONEWEB-0439             
1 51635U 22012P   25214.16067348 -.00000281  00000+0 -84268-3 0  9999
2 51635  87.8797  99.9063 0001880  79.1399 280.9939 13.10370000168829
ONEWEB-0442             
1 51636U 22012Q   25214.12083530  .00000067  00000+0  13832-3 0  9996
2 51636  87.9033  69.3960 0001416 103.2508 256.8782 13.17649747172947
ONEWEB-0443             
1 51637U 22012R   25213.91242924 -.00000145  00000+0 -40590-3 0  9997
2 51637  87.9030  69.4470 0001964  91.0619 269.0738 13.17648800171672
ONEWEB-0444             
1 51638U 22012S   25214.45615835  .00000224  00000+0  60471-3 0  9999
2 51638  87.8792  99.8488 0001976  79.2175 280.9174 13.10370052168880
ONEWEB-0445             
1 51639U 22012T   25213.63777532 -.00000665  00000+0 -19424-2 0  9994
2 51639  87.8794  99.9649 0001617  77.2294 282.9014 13.10372037167491
